[{"OBJECT_NAME":"CONNECTA IOT-13","OBJECT_ID":"2026-004AP","EPOCH":"2026-03-09T21:30:41.110560","MEAN_MOTION":15.17636182,"ECCENTRICITY":0.00083464,"INCLINATION":97.4574,"RA_OF_ASC_NODE":69.4172,"ARG_OF_PERICENTER":345.5859,"MEAN_ANOMALY":14.5136,"EPHEMERIS_TYPE":0,"CLASSIFICATION_TYPE":"U","NORAD_CAT_ID":67400,"ELEMENT_SET_NO":999,"REV_AT_EPOCH":869,"BSTAR":0.00022273325,"MEAN_MOTION_DOT":4.418e-5,"MEAN_MOTION_DDOT":0},{"OBJECT_NAME":"CZ-4B DEB","OBJECT_ID":"2010-051E","EPOCH":"2026-03-08T22:01:50.125728","MEAN_MOTION":15.23766972,"ECCENTRICITY":0.00561086,"INCLINATION":97.769,"RA_OF_ASC_NODE":240.5013,"ARG_OF_PERICENTER":301.1291,"MEAN_ANOMALY":58.4449,"EPHEMERIS_TYPE":0,"CLASSIFICATION_TYPE":"U","NORAD_CAT_ID":38184,"ELEMENT_SET_NO":999,"REV_AT_EPOCH":82066,"BSTAR":0.0024566319,"MEAN_MOTION_DOT":0.00062123,"MEAN_MOTION_DDOT":0}]
